[{"OBJECT_NAME":"OBJECT C","OBJECT_ID":"2024-024C","EPOCH":"2026-03-09T23:05:51.559584","MEAN_MOTION":15.59218925,"ECCENTRICITY":0.00024071,"INCLINATION":97.3212,"RA_OF_ASC_NODE":154.3938,"ARG_OF_PERICENTER":211.7336,"MEAN_ANOMALY":148.3776,"EPHEMERIS_TYPE":0,"CLASSIFICATION_TYPE":"U","NORAD_CAT_ID":58919,"ELEMENT_SET_NO":999,"REV_AT_EPOCH":11733,"BSTAR":0.0012034335,"MEAN_MOTION_DOT":0.00095223,"MEAN_MOTION_DDOT":0},{"OBJECT_NAME":"FLOCK 4Q-20","OBJECT_ID":"2023-174BK","EPOCH":"2026-03-09T16:59:22.680960","MEAN_MOTION":15.59900002,"ECCENTRICITY":0.00063495,"INCLINATION":97.3925,"RA_OF_ASC_NODE":161.0168,"ARG_OF_PERICENTER":132.9644,"MEAN_ANOMALY":227.2146,"EPHEMERIS_TYPE":0,"CLASSIFICATION_TYPE":"U","NORAD_CAT_ID":58313,"ELEMENT_SET_NO":999,"REV_AT_EPOCH":13056,"BSTAR":0.0015332527,"MEAN_MOTION_DOT":0.00125062,"MEAN_MOTION_DDOT":0}]
